OBJECT_NAME,OBJECT_ID,EPOCH,MEAN_MOTION,ECCENTRICITY,INCLINATION,RA_OF_ASC_NODE,ARG_OF_PERICENTER,MEAN_ANOMALY,EPHEMERIS_TYPE,CLASSIFICATION_TYPE,NORAD_CAT_ID,ELEMENT_SET_NO,REV_AT_EPOCH,BSTAR,MEAN_MOTION_DOT,MEAN_MOTION_DDOT
STAR VIBE,2023-001A,2026-07-07T11:17:02.158368,15.43204163,.0006236,97.3157,253.0223,55.0179,305.1654,0,U,55009,999,19535,.23462E-3,.10332E-3,0
MENUT,2023-001B,2026-07-07T11:11:07.653984,15.63451254,.0002916,97.3112,257.0526,71.5303,288.6273,0,U,55010,999,19556,.77127E-3,.71545E-3,0
BRO-8,2023-001C,2026-07-07T12:25:06.947328,15.50390569,.0005645,97.3189,254.0108,65.4338,294.7501,0,U,55011,999,19535,.42022E-3,.23833E-3,0
CONNECTA T1.2,2023-001D,2026-07-07T03:57:07.255584,15.52395211,.0004677,97.3240,259.2291,38.2413,321.9171,0,U,55012,999,19564,.52431E-3,.31987E-3,0
BIRKELAND,2023-001G,2026-07-07T11:32:46.122432,15.40447252,.0007248,97.3334,256.5064,46.2226,313.9619,0,U,55015,999,19547,.15229E-3,.6085E-4,0
LYNK TOWER 4,2023-001AB,2026-07-07T09:45:35.502624,15.33689303,.0009351,97.3186,247.1381,57.0922,303.1219,0,U,55034,999,19492,.17131E-3,.5508E-4,0
SKYKRAFT-1,2023-001AJ,2026-07-07T11:33:39.955680,15.68963958,.0001704,97.3166,266.6083,352.9950,7.1287,0,U,55041,999,19623,.35501E-3,.4083E-3,0
CONTINUUM-1,2023-001AN,2026-07-07T12:13:23.493216,15.30675267,.0008481,97.3325,251.3569,358.8856,1.2364,0,U,55045,999,19536,.25784E-3,.7577E-4,0
LYNK TOWER 3,2023-001AP,2026-07-07T03:28:23.752704,15.36781576,.0008618,97.3184,248.2939,57.1397,303.0676,0,U,55046,999,19497,.23675E-3,.8438E-4,0
NUSAT-33 (ALBANIA-2),2023-001AQ,2026-07-07T12:16:27.531264,15.28174716,.0005489,97.3058,249.0289,347.9514,12.1593,0,U,55047,999,19541,.2368E-3,.6432E-4,0
NUSAT-35 (WILLIAMINA),2023-001AR,2026-07-07T11:57:29.695968,15.35685305,.0011385,97.1840,240.7352,37.0753,323.1275,0,U,55048,999,19552,.27744E-3,.9571E-4,0
ICEYE-X21,2023-001AS,2026-06-24T05:11:18.420288,16.24069885,.00123774,97.3001,262.6152,285.9702,74.0225,0,U,55049,999,19475,.602142E-3,.1585954E-1,.2396838E-5
ION SCV-008,2023-001AU,2026-07-06T21:00:16.013376,15.28814771,.0013378,97.5709,284.5261,305.9188,54.0809,0,U,55051,999,19434,.18516E-3,.5118E-4,0
EOSSAT-1,2023-001AW,2026-07-07T05:49:46.829568,15.33798550,.0010292,97.3225,248.6742,52.6994,307.5185,0,U,55053,999,19499,.11932E-3,.3826E-4,0
SKYKRAFT-1A,2023-001AX,2026-07-07T05:24:28.645056,15.29478218,.0010928,97.3204,245.2880,66.5728,293.6660,0,U,55054,999,19478,.13811E-3,.3878E-4,0
VIGORIDE-5,2023-001AZ,2026-07-07T04:13:33.542688,15.63574840,.0005456,97.3210,260.3658,109.4945,250.6904,0,U,55056,999,19578,.3667E-3,.33984E-3,0
ION SCV-007,2023-001BD,2026-07-07T02:35:03.302304,14.77571345,.0010901,97.8996,250.7267,271.5873,88.4089,0,U,55060,999,18919,.58428E-4,.367E-5,0
SKYKRAFT-1C,2023-001BE,2026-07-07T05:11:52.962144,15.25120523,.0012122,97.3179,241.4284,79.0157,281.2444,0,U,55061,999,19453,.10449E-3,.255E-4,0
YAM-5,2023-001BV,2026-07-06T17:34:55.149600,15.38981642,.0009358,97.3179,250.7563,48.1287,312.0756,0,U,55076,999,19511,.23215E-3,.8889E-4,0
HUYGENS,2023-001CN,2026-07-07T11:32:53.407680,15.40446900,.0009311,97.3238,255.7100,21.2470,338.9161,0,U,55093,999,19549,.18096E-3,.7252E-4,0
KUWAITSAT-1,2023-001CY,2026-07-07T11:23:24.042048,15.50588573,.00073,97.3228,259.6055,10.0105,350.1290,0,U,55103,999,19573,.2955E-3,.16841E-3,0
SHARJAHSAT-1,2023-001CZ,2026-07-07T12:29:23.424864,15.49904237,.0005562,97.3157,257.5782,44.8970,315.2730,0,U,55104,999,19564,.25743E-3,.14298E-3,0
AAC-AIS-SAT1,2023-001DC,2026-07-07T11:45:42.449760,14.92296012,.0009107,97.9185,265.3679,203.0042,157.0769,0,U,55107,999,18131,.35448E-3,.3565E-4,0
ASTROCAST-0402,2023-001DE,2026-07-07T04:52:58.092096,15.28903463,.0005867,97.5576,281.7057,156.8284,203.3221,0,U,55109,999,14759,.25301E-3,.703E-4,0
ASTROCAST-0401,2023-001DF,2026-07-07T05:11:38.757120,15.28384033,.0009426,97.5554,281.5321,131.8733,228.3312,0,U,55110,999,19426,.3551E-3,.9752E-4,0
ASTROCAST-0403,2023-001DG,2026-07-07T06:03:53.826912,15.32109189,.0004102,97.5616,282.8372,244.5120,115.5697,0,U,55111,999,14763,.42534E-3,.13117E-3,0
ASTROCAST-0404,2023-001DH,2026-07-07T11:57:08.756064,15.28745041,.0004804,97.5662,282.9311,278.5773,81.4922,0,U,55112,999,14763,.19629E-3,.5408E-4,0
SHIJIAN-23 (SJ-23),2023-002A,2026-07-02T18:38:54.470976,1.00083356,.0003517,3.7551,78.1245,278.1911,341.9054,0,U,55131,999,1266,0,-.31E-5,0
2023-003C,2023-003C,2026-07-07T12:54:12.030336,15.56583550,.0003774,97.1511,265.1239,74.6618,285.5054,0,U,55135,999,19544,.23255E-3,.16439E-3,0
2023-003E,2023-003E,2026-07-07T12:11:31.801344,15.56097793,.0004086,97.1423,263.9307,60.7328,299.4336,0,U,55137,999,19542,.24402E-3,.16949E-3,0
ONEWEB-0532,2023-004A,2026-07-06T22:16:00.077088,13.17648139,.0002089,87.9133,1.9362,83.6443,276.4927,0,U,55140,999,17018,.49526E-4,.32E-6,0
ONEWEB-0533,2023-004B,2026-07-07T10:21:25.660800,13.12441829,.0001687,87.8955,346.6444,91.5710,268.5612,0,U,55141,999,17071,.12347E-2,.457E-5,0
ONEWEB-0541,2023-004C,2026-07-07T11:27:13.167936,13.11416203,.000202,87.8890,17.0189,89.2085,270.9274,0,U,55142,999,16860,-.14982E-2,-.518E-5,0
ONEWEB-0543,2023-004D,2026-07-07T08:19:42.586752,13.18686309,.0001743,87.9181,331.4587,103.2530,256.8797,0,U,55143,999,17235,.20169E-3,.92E-6,0
ONEWEB-0544,2023-004E,2026-07-06T21:14:25.514592,13.18686943,.0001975,87.9180,331.5501,101.8900,258.2453,0,U,55144,999,17229,.68981E-4,.4E-6,0
ONEWEB-0560,2023-004F,2026-07-07T09:49:31.854144,13.18684798,.0001971,87.9178,331.4348,105.0017,255.1333,0,U,55145,999,17237,.23718E-3,.106E-5,0
ONEWEB-0565,2023-004G,2026-07-07T09:39:50.714784,13.18687182,.0002309,87.9171,331.4627,97.7966,262.3428,0,U,55146,999,17236,.12604E-3,.63E-6,0
ONEWEB-0567,2023-004H,2026-07-06T22:34:33.343680,13.18687115,.0002216,87.9179,331.5400,101.1912,258.9469,0,U,55147,999,17230,.1665E-4,.19E-6,0
ONEWEB-0569,2023-004J,2026-07-07T08:20:27.556224,13.13470728,.0002526,87.8984,316.2081,118.2767,241.8618,0,U,55148,999,17282,.95191E-3,.36E-5,0
ONEWEB-0570,2023-004K,2026-07-06T22:22:24.627936,13.18686804,.000214,87.9179,331.5395,88.4072,271.7305,0,U,55149,999,17229,.10469E-3,.54E-6,0
ONEWEB-0571,2023-004L,2026-07-07T09:08:16.950336,13.18685437,.0003028,87.9180,331.4500,108.3259,251.8202,0,U,55150,999,17236,.12084E-4,.18E-6,0
ONEWEB-0572,2023-004M,2026-07-06T21:11:37.292928,13.17651069,.0002012,87.9139,1.9466,91.6652,268.4710,0,U,55151,999,17007,.60255E-4,.36E-6,0
ONEWEB-0573,2023-004N,2026-07-07T08:58:32.774880,13.18687236,.0002733,87.9179,331.4529,102.1865,257.9573,0,U,55152,999,17235,.33018E-4,.26E-6,0
ONEWEB-0588,2023-004P,2026-07-07T08:48:51.302016,13.18685990,.0002267,87.9180,331.4540,87.3965,272.7426,0,U,55153,999,17235,-.73047E-6,.13E-6,0
ONEWEB-0598,2023-004Q,2026-07-07T10:55:29.623008,13.11414255,.0002363,87.8879,17.0324,103.8441,256.2950,0,U,55154,999,16855,.18307E-3,.78E-6,0
ONEWEB-0599,2023-004R,2026-07-07T10:50:29.920416,13.17649601,.0001785,87.9137,1.8318,97.8734,262.2601,0,U,55155,999,17015,-.11904E-4,.8E-7,0
ONEWEB-0614,2023-004S,2026-07-07T10:48:10.151136,13.11414581,.000187,87.8875,17.0417,82.9867,277.1474,0,U,55156,999,16849,.73571E-3,.273E-5,0
ONEWEB-0616,2023-004T,2026-07-07T10:01:54.012000,13.17650356,.0001396,87.9139,1.8424,121.0198,239.1071,0,U,55157,999,17036,.10251E-3,.53E-6,0
ONEWEB-0617,2023-004U,2026-07-06T21:42:00.860832,13.11416547,.0002092,87.8883,17.1426,79.9884,280.1480,0,U,55158,999,16844,.15136E-2,.549E-5,0
ONEWEB-0618,2023-004V,2026-07-07T05:28:30.501120,15.13327062,.0011003,86.9099,169.4967,205.6608,154.4088,0,U,55159,999,18529,.21796E-3,.3919E-4,0
ONEWEB-0619,2023-004W,2026-07-07T10:48:04.237056,13.17650128,.0001551,87.9149,1.8186,82.1315,277.9992,0,U,55160,999,17026,.19845E-4,.21E-6,0
ONEWEB-0620,2023-004X,2026-07-06T23:24:33.328800,13.11416838,.0002107,87.8876,17.1360,91.3252,268.8117,0,U,55161,999,16842,.15451E-2,.56E-5,0
ONEWEB-0621,2023-004Y,2026-07-07T11:02:48.680160,13.11414582,.0001832,87.8886,17.0300,83.2870,276.8467,0,U,55162,999,16846,-.40184E-3,-.13E-5,0
ONEWEB-0622,2023-004Z,2026-07-07T11:10:08.145120,13.11414996,.0002393,87.8889,17.0317,76.9531,283.1864,0,U,55163,999,16845,-.10529E-2,-.36E-5,0
ONEWEB-0623,2023-004AA,2026-07-06T21:55:19.883712,13.17647744,.0001989,87.9135,1.9533,67.5462,292.5880,0,U,55164,999,17018,.163E-3,.76E-6,0
ONEWEB-0624,2023-004AB,2026-07-07T09:21:59.277888,13.12928853,.0001796,87.8959,346.5639,90.2466,269.8869,0,U,55165,999,17072,-.91843E-3,-.32E-5,0
ONEWEB-0625,2023-004AC,2026-07-07T10:26:11.956704,13.17650280,.0001721,87.9138,1.8457,94.1596,265.9732,0,U,55166,999,17024,.67338E-4,.39E-6,0
ONEWEB-0626,2023-004AD,2026-07-07T10:11:38.787936,13.17648143,.0002101,87.9132,1.8466,99.4163,260.7206,0,U,55167,999,17024,.88379E-3,.356E-5,0
ONEWEB-0627,2023-004AE,2026-07-07T09:54:36.516096,13.17647934,.0001883,87.9138,1.8498,77.0895,283.0447,0,U,55168,999,17024,.15204E-3,.72E-6,0
ONEWEB-0628,2023-004AF,2026-07-06T22:07:18.297120,13.12442032,.0001756,87.8961,346.7285,72.4650,287.6671,0,U,55169,999,17062,-.92842E-3,-.321E-5,0
ONEWEB-0629,2023-004AG,2026-07-07T11:08:43.786752,13.17649083,.0001606,87.9137,1.8355,85.3646,274.7669,0,U,55170,999,17025,.73907E-4,.42E-6,0
ONEWEB-0631,2023-004AH,2026-07-07T08:39:08.615232,13.18685991,.0002369,87.9188,331.4236,93.7073,266.4330,0,U,55171,999,17233,.25394E-3,.113E-5,0
ONEWEB-0709,2023-004AJ,2026-07-06T23:09:54.355680,13.11418107,.0002502,87.8878,17.1402,104.3355,255.8051,0,U,55172,999,16846,.10319E-2,.378E-5,0
ONEWEB-0710,2023-004AK,2026-07-06T20:54:35.129088,13.17647917,.0001954,87.9137,1.9489,86.8322,273.3033,0,U,55173,999,17017,.59969E-5,.15E-6,0
ONEWEB-0711,2023-004AL,2026-07-07T11:17:27.395808,13.11415654,.0002162,87.8881,17.0276,70.5330,289.6031,0,U,55174,999,16849,-.13733E-2,-.474E-5,0
ONEWEB-0713,2023-004AM,2026-07-07T11:44:19.311360,13.11417676,.0002014,87.8883,17.0257,77.8576,282.2778,0,U,55175,999,16848,-.65612E-3,-.22E-5,0
ONEWEB-0715,2023-004AN,2026-07-07T11:36:59.467104,13.11416974,.0002501,87.8882,17.0272,94.9770,265.1644,0,U,55176,999,16852,-.10928E-2,-.375E-5,0
